[{"OBJECT_NAME":"STARLINK-32745","OBJECT_ID":"2025-014W","EPOCH":"2026-03-09T06:50:45.838464","MEAN_MOTION":15.27575633,"ECCENTRICITY":0.00013738,"INCLINATION":43.0012,"RA_OF_ASC_NODE":156.8377,"ARG_OF_PERICENTER":283.0412,"MEAN_ANOMALY":77.0286,"EPHEMERIS_TYPE":0,"CLASSIFICATION_TYPE":"U","NORAD_CAT_ID":62755,"ELEMENT_SET_NO":999,"REV_AT_EPOCH":6319,"BSTAR":0.0010420338,"MEAN_MOTION_DOT":0.0002852,"MEAN_MOTION_DDOT":0},{"OBJECT_NAME":"AL MUNTHER","OBJECT_ID":"2025-052AG","EPOCH":"2026-03-09T15:29:23.207136","MEAN_MOTION":15.28381521,"ECCENTRICITY":0.0008027,"INCLINATION":97.4001,"RA_OF_ASC_NODE":323.9152,"ARG_OF_PERICENTER":130.7043,"MEAN_ANOMALY":229.4895,"EPHEMERIS_TYPE":0,"CLASSIFICATION_TYPE":"U","NORAD_CAT_ID":63240,"ELEMENT_SET_NO":999,"REV_AT_EPOCH":5479,"BSTAR":0.00065015,"MEAN_MOTION_DOT":0.00017933,"MEAN_MOTION_DDOT":0}]
